{
  "norad_id": 62032,
  "name": "STARLINK-32637",
  "history": [
    {
      "epoch": "2026-03-28T20:53:28.049856Z",
      "apogee_km": 484.303531152339,
      "perigee_km": 481.7028845679524,
      "latitude_deg": -4.125716095573517e-05,
      "longitude_deg": 7.959877674904401,
      "height_km": 482.7328327067894,
      "semi_major_axis_km": 6861.140207860146,
      "eccentricity": 0.00018952,
      "inclination_deg": 43.0023,
      "raan_deg": 147.6115,
      "arg_perigee_deg": 272.1038,
      "mean_anomaly_deg": 87.9596,
      "mean_motion_rev_day": 15.27595325
    }
  ]
}